"CCSDS_OMM_VERS","COMMENT","CREATION_DATE","ORIGINATOR","OBJECT_NAME","OBJECT_ID","CENTER_NAME","REF_FRAME","TIME_SYSTEM","MEAN_ELEMENT_THEORY","EPOCH","MEAN_MOTION","ECCENTRICITY","INCLINATION","RA_OF_ASC_NODE","ARG_OF_PERICENTER","MEAN_ANOMALY","EPHEMERIS_TYPE","CLASSIFICATION_TYPE","NORAD_CAT_ID","ELEMENT_SET_NO","REV_AT_EPOCH","BSTAR","MEAN_MOTION_DOT","MEAN_MOTION_DDOT","SEMIMAJOR_AXIS","PERIOD","APOAPSIS","PERIAPSIS","OBJECT_TYPE","RCS_SIZE","COUNTRY_CODE","LAUNCH_DATE","SITE","DECAY_DATE","FILE","GP_ID","TLE_LINE0","TLE_LINE1","TLE_LINE2"
"2.0","GENERATED VIA SPACE-TRACK.ORG API","2022-07-30T02:32:31","18 SPCS","CARTOSAT 3","2019-081A","EARTH","TEME","UTC","SGP4","2022-07-29T19:10:35.684832","15.19142250","0.00151030","97.3944","271.5080","72.8492","64.1961","0","U","44804","999","14806","-0.00230450000000","-0.00048282","0.0000000000000","6886.569","94.790","518.834","498.033","PAYLOAD","LARGE","IND","2019-11-27","SRI",null,"3524848","209130033","0 CARTOSAT 3","1 44804U 19081A   22210.79902413 -.00048282  00000-0 -23045-2 0  9993","2 44804  97.3944 271.5080 0015103  72.8492  64.1961 15.19142250148069"
"2.0","GENERATED VIA SPACE-TRACK.ORG API","2022-07-30T05:06:11","18 SPCS","CARTOSAT 3","2019-081A","EARTH","TEME","UTC","SGP4","2022-07-30T02:37:21.565632","15.19232787","0.00141770","97.3903","271.8106","69.9734","322.8913","0","U","44804","999","14811","0.00038997000000","0.00008172","0.0000000000000","6886.295","94.785","517.923","498.397","PAYLOAD","LARGE","IND","2019-11-27","SRI",null,"3524860","209136489","0 CARTOSAT 3","1 44804U 19081A   22211.10927738  .00008172  00000-0  38997-3 0  9991","2 44804  97.3903 271.8106 0014177  69.9734 322.8913 15.19232787148114"
"2.0","GENERATED VIA SPACE-TRACK.ORG API","2022-07-30T14:16:11","18 SPCS","CARTOSAT 3","2019-081A","EARTH","TEME","UTC","SGP4","2022-07-30T10:49:00.935328","15.19182029","0.00143620","97.3910","272.1472","67.7818","31.1901","0","U","44804","999","14816","-0.00093964000000","-0.00019818","0.0000000000000","6886.448","94.788","518.204","498.423","PAYLOAD","LARGE","IND","2019-11-27","SRI",null,"3525169","209143291","0 CARTOSAT 3","1 44804U 19081A   22211.45070527 -.00019818  00000-0 -93964-3 0  9990","2 44804  97.3910 272.1472 0014362  67.7818  31.1901 15.19182029148162"
"2.0","GENERATED VIA SPACE-TRACK.ORG API","2022-07-30T17:24:47","18 SPCS","CARTOSAT 3","2019-081A","EARTH","TEME","UTC","SGP4","2022-07-30T14:01:05.837376","15.19187700","0.00149300","97.3893","272.2775","67.1108","40.9353","0","U","44804","999","14818","-0.00077477000000","-0.00016367","0.0000000000000","6886.431","94.787","518.578","498.015","PAYLOAD","LARGE","IND","2019-11-27","SRI",null,"3525407","209168461","0 CARTOSAT 3","1 44804U 19081A   22211.58409534 -.00016367  00000-0 -77477-3 0  9995","2 44804  97.3893 272.2775 0014930  67.1108  40.9353 15.19187700148188"
"2.0","GENERATED VIA SPACE-TRACK.ORG API","2022-07-30T22:16:12","18 SPCS","CARTOSAT 3","2019-081A","EARTH","TEME","UTC","SGP4","2022-07-30T20:07:47.555040","15.19185365","0.00150050","97.3898","272.5265","66.7445","353.1226","0","U","44804","999","14822","-0.00069639000000","-0.00014720","0.0000000000000","6886.438","94.788","518.636","497.970","PAYLOAD","LARGE","IND","2019-11-27","SRI",null,"3525439","209200213","0 CARTOSAT 3","1 44804U 19081A   22211.83874485 -.00014720  00000-0 -69639-3 0  9996","2 44804  97.3898 272.5265 0015005  66.7445 353.1226 15.19185365148221"
"2.0","GENERATED VIA SPACE-TRACK.ORG API","2022-07-31T03:06:08","18 SPCS","CARTOSAT 3","2019-081A","EARTH","TEME","UTC","SGP4","2022-07-30T20:07:47.555040","15.19185365","0.00150050","97.3898","272.5265","66.7445","353.1226","0","U","44804","999","14822","-0.00069639000000","-0.00014720","0.0000000000000","6886.438","94.788","518.636","497.970","PAYLOAD","LARGE","IND","2019-11-27","SRI",null,"3525638","209224905","0 CARTOSAT 3","1 44804U 19081A   22211.83874485 -.00014720  00000-0 -69639-3 0  9996","2 44804  97.3898 272.5265 0015005  66.7445 353.1226 15.19185365148221"
"2.0","GENERATED VIA SPACE-TRACK.ORG API","2022-07-31T06:26:12","18 SPCS","CARTOSAT 3","2019-081A","EARTH","TEME","UTC","SGP4","2022-07-31T04:09:40.793184","15.19191091","0.00148550","97.3891","272.8533","65.6086","23.3199","0","U","44804","999","14827","-0.00051294000000","-0.00010867","0.0000000000000","6886.421","94.787","518.516","498.056","PAYLOAD","LARGE","IND","2019-11-27","SRI",null,"3525658","209231021","0 CARTOSAT 3","1 44804U 19081A   22212.17338881 -.00010867  00000-0 -51294-3 0  9995","2 44804  97.3891 272.8533 0014855  65.6086  23.3199 15.19191091148279"
"2.0","GENERATED VIA SPACE-TRACK.ORG API","2022-07-31T14:16:12","18 SPCS","CARTOSAT 3","2019-081A","EARTH","TEME","UTC","SGP4","2022-07-31T07:12:58.186080","15.19199781","0.00146630","97.3907","272.9789","63.1121","1.5268","0","U","44804","999","14829","-0.00035864000000","-0.00007623","0.0000000000000","6886.395","94.787","518.357","498.162","PAYLOAD","LARGE","IND","2019-11-27","SRI",null,"3525914","209236930","0 CARTOSAT 3","1 44804U 19081A   22212.30067345 -.00007623  00000-0 -35864-3 0  9995","2 44804  97.3907 272.9789 0014663  63.1121   1.5268 15.19199781148292"
"2.0","GENERATED VIA SPACE-TRACK.ORG API","2022-07-31T17:37:20","18 SPCS","CARTOSAT 3","2019-081A","EARTH","TEME","UTC","SGP4","2022-07-31T13:43:46.835904","15.19220232","0.00148400","97.3931","273.2458","63.2327","44.8104","0","U","44804","999","14833","0.00000905960000","0.00000124","0.0000000000000","6886.333","94.785","518.417","497.979","PAYLOAD","LARGE","IND","2019-11-27","SRI",null,"3526169","209262219","0 CARTOSAT 3","1 44804U 19081A   22212.57206986  .00000124  00000-0  90596-5 0  9992","2 44804  97.3931 273.2458 0014840  63.2327  44.8104 15.19220232148332"
"2.0","GENERATED VIA SPACE-TRACK.ORG API","2022-07-31T22:16:12","18 SPCS","CARTOSAT 3","2019-081A","EARTH","TEME","UTC","SGP4","2022-07-31T20:04:02.611776","15.19221578","0.00147780","97.3935","273.5035","62.7872","48.5947","0","U","44804","999","14837","0.00002967300000","0.00000559","0.0000000000000","6886.329","94.785","518.371","498.017","PAYLOAD","LARGE","IND","2019-11-27","SRI",null,"3526195","209268923","0 CARTOSAT 3","1 44804U 19081A   22212.83614134  .00000559  00000-0  29673-4 0  9998","2 44804  97.3935 273.5035 0014778  62.7872  48.5947 15.19221578148373"
"2.0","GENERATED VIA SPACE-TRACK.ORG API","2022-08-01T02:22:49","18 SPCS","CARTOSAT 3","2019-081A","EARTH","TEME","UTC","SGP4","2022-07-31T20:04:02.611776","15.19221578","0.00147780","97.3935","273.5035","62.7872","48.5947","0","U","44804","999","14837","0.00002967300000","0.00000559","0.0000000000000","6886.329","94.785","518.371","498.017","PAYLOAD","LARGE","IND","2019-11-27","SRI",null,"3526413","209294278","0 CARTOSAT 3","1 44804U 19081A   22212.83614134  .00000559  00000-0  29673-4 0  9998","2 44804  97.3935 273.5035 0014778  62.7872  48.5947 15.19221578148373"
"2.0","GENERATED VIA SPACE-TRACK.ORG API","2022-08-01T06:16:11","18 SPCS","CARTOSAT 3","2019-081A","EARTH","TEME","UTC","SGP4","2022-08-01T03:49:31.506816","15.19223897","0.00145620","97.3930","273.8205","62.6030","15.5810","0","U","44804","999","14842","0.00005621800000","0.00001119","0.0000000000000","6886.322","94.785","518.215","498.159","PAYLOAD","LARGE","IND","2019-11-27","SRI",null,"3526431","209299526","0 CARTOSAT 3","1 44804U 19081A   22213.15939244  .00001119  00000-0  56218-4 0  9994","2 44804  97.3930 273.8205 0014562  62.6030  15.5810 15.19223897148421"
"2.0","GENERATED VIA SPACE-TRACK.ORG API","2022-08-01T14:16:12","18 SPCS","CARTOSAT 3","2019-081A","EARTH","TEME","UTC","SGP4","2022-08-01T11:52:04.258272","15.19223494","0.00146690","97.3933","274.1480","60.9678","48.7804","0","U","44804","999","14847","0.00003954800000","0.00000767","0.0000000000000","6886.323","94.785","518.290","498.087","PAYLOAD","LARGE","IND","2019-11-27","SRI",null,"3526653","209305006","0 CARTOSAT 3","1 44804U 19081A   22213.49449373  .00000767  00000-0  39548-4 0  9995","2 44804  97.3933 274.1480 0014669  60.9678  48.7804 15.19223494148479"
"2.0","GENERATED VIA SPACE-TRACK.ORG API","2022-08-01T17:53:45","18 SPCS","CARTOSAT 3","2019-081A","EARTH","TEME","UTC","SGP4","2022-08-01T15:13:14.334816","15.19224963","0.00145430","97.3925","274.2852","60.8895","92.4225","0","U","44804","999","14849","0.00005564400000","0.00001107","0.0000000000000","6886.319","94.785","518.198","498.169","PAYLOAD","LARGE","IND","2019-11-27","SRI",null,"3526929","209330405","0 CARTOSAT 3","1 44804U 19081A   22213.63419369  .00001107  00000-0  55644-4 0  9997","2 44804  97.3925 274.2852 0014543  60.8895  92.4225 15.19224963148492"
"2.0","GENERATED VIA SPACE-TRACK.ORG API","2022-08-01T22:26:13","18 SPCS","CARTOSAT 3","2019-081A","EARTH","TEME","UTC","SGP4","2022-08-01T18:16:44.081184","15.19225030","0.00145370","97.3927","274.4102","60.5036","69.2911","0","U","44804","999","14851","0.00005359400000","0.00001064","0.0000000000000","6886.318","94.785","518.194","498.173","PAYLOAD","LARGE","IND","2019-11-27","SRI",null,"3526940","209363000","0 CARTOSAT 3","1 44804U 19081A   22213.76162131  .00001064  00000-0  53594-4 0  9997","2 44804  97.3927 274.4102 0014537  60.5036  69.2911 15.19225030148514"
"2.0","GENERATED VIA SPACE-TRACK.ORG API","2022-08-02T02:11:20","18 SPCS","CARTOSAT 3","2019-081A","EARTH","TEME","UTC","SGP4","2022-08-01T21:22:31.745280","15.19224599","0.00145470","97.3924","274.5366","60.0910","54.9090","0","U","44804","999","14853","0.00004703900000","0.00000925","0.0000000000000","6886.320","94.785","518.202","498.167","PAYLOAD","LARGE","IND","2019-11-27","SRI",null,"3527139","209387572","0 CARTOSAT 3","1 44804U 19081A   22213.89064520  .00000925  00000-0  47039-4 0  9996","2 44804  97.3924 274.5366 0014547  60.0910  54.9090 15.19224599148531"
